{
  "type": "FeatureCollection",
  "features": [
    {
      "type": "Feature",
      "properties": {
        "norad_id": 41866,
        "name": "GOES 16",
        "group": "weather",
        "lat": 0.03358408110374471,
        "lon": 131.05177578179175,
        "alt_km": 35794.816843951376,
        "timestamp": "2025-12-03T10:52:57.090131+00:00",
        "meta_object_name": "GOES 16",
        "meta_object_id": "2016-071A",
        "meta_epoch": "2025-12-03T04:00:38.641824",
        "meta_mean_motion": 1.00270589,
        "meta_eccentricity": 0.0003416,
        "meta_inclination": 0.0584,
        "meta_ra_of_asc_node": 106.7677,
        "meta_arg_of_pericenter": 149.8495,
        "meta_mean_anomaly": 131.1342,
        "meta_ephemeris_type": 0,
        "meta_classification_type": "U",
        "meta_norad_cat_id": 41866,
        "meta_element_set_no": 999,
        "meta_rev_at_epoch": 3313,
        "meta_bstar": 0,
        "meta_mean_motion_dot": -7.2e-07,
        "meta_mean_motion_ddot": 0,
        "tle_line1": "1 41866U 16071A   25337.16711391 -.00000072  00000+0  00000+0 0  9997",
        "tle_line2": "2 41866   0.0584 106.7677 0003416 149.8495 131.1342  1.00270589 33139"
      },
      "geometry": {
        "type": "Point",
        "coordinates": [
          131.05177578179175,
          0.03358408110374471
        ]
      }
    },
    {
      "type": "Feature",
      "properties": {
        "norad_id": 41882,
        "name": "FENGYUN 4A",
        "group": "weather",
        "lat": -1.7933861184505806,
        "lon": -0.4698609764349268,
        "alt_km": 35799.59732181619,
        "timestamp": "2025-12-03T10:52:57.090143+00:00",
        "meta_object_name": "FENGYUN 4A",
        "meta_object_id": "2016-077A",
        "meta_epoch": "2025-12-02T22:56:06.313632",
        "meta_mean_motion": 1.00278456,
        "meta_eccentricity": 0.000502,
        "meta_inclination": 1.8224,
        "meta_ra_of_asc_node": 82.4844,
        "meta_arg_of_pericenter": 141.5772,
        "meta_mean_anomaly": 315.7326,
        "meta_ephemeris_type": 0,
        "meta_classification_type": "U",
        "meta_norad_cat_id": 41882,
        "meta_element_set_no": 999,
        "meta_rev_at_epoch": 3296,
        "meta_bstar": 0,
        "meta_mean_motion_dot": -3.37e-06,
        "meta_mean_motion_ddot": 0,
        "tle_line1": "1 41882U 16077A   25336.95562863 -.00000337  00000+0  00000+0 0  9999",
        "tle_line2": "2 41882   1.8224  82.4844 0005020 141.5772 315.7326  1.00278456 32966"
      },
      "geometry": {
        "type": "Point",
        "coordinates": [
          -0.4698609764349268,
          -1.7933861184505806
        ]
      }
    },
    {
      "type": "Feature",
      "properties": {
        "norad_id": 41884,
        "name": "CYGFM05",
        "group": "weather",
        "lat": 14.022771835065248,
        "lon": 128.71281477903722,
        "alt_km": 419.78172831809843,
        "timestamp": "2025-12-03T10:52:57.090154+00:00",
        "meta_object_name": "CYGFM05",
        "meta_object_id": "2016-078A",
        "meta_epoch": "2025-12-03T01:28:58.083168",
        "meta_mean_motion": 15.47083635,
        "meta_eccentricity": 0.000941,
        "meta_inclination": 34.958,
        "meta_ra_of_asc_node": 110.3228,
        "meta_arg_of_pericenter": 90.273,
        "meta_mean_anomaly": 269.907,
        "meta_ephemeris_type": 0,
        "meta_classification_type": "U",
        "meta_norad_cat_id": 41884,
        "meta_element_set_no": 999,
        "meta_rev_at_epoch": 49826,
        "meta_bstar": 0.00049128,
        "meta_mean_motion_dot": 0.00025714,
        "meta_mean_motion_ddot": 0,
        "tle_line1": "1 41884U 16078A   25337.06178337  .00025714  00000+0  49128-3 0  9997",
        "tle_line2": "2 41884  34.9580 110.3228 0009410  90.2730 269.9070 15.47083635498262"
      },
      "geometry": {
        "type": "Point",
        "coordinates": [
          128.71281477903722,
          14.022771835065248
        ]
      }
    },
    {
      "type": "Feature",
      "properties": {
        "norad_id": 41885,
        "name": "CYGFM04",
        "group": "weather",
        "lat": 3.1759675773654026,
        "lon": -101.75269435076343,
        "alt_km": 412.0078832629724,
        "timestamp": "2025-12-03T10:52:57.090166+00:00",
        "meta_object_name": "CYGFM04",
        "meta_object_id": "2016-078B",
        "meta_epoch": "2025-12-02T17:07:43.444992",
        "meta_mean_motion": 15.49717157,
        "meta_eccentricity": 0.0008454,
        "meta_inclination": 34.9339,
        "meta_ra_of_asc_node": 87.6561,
        "meta_arg_of_pericenter": 117.0889,
        "meta_mean_anomaly": 243.0696,
        "meta_ephemeris_type": 0,
        "meta_classification_type": "U",
        "meta_norad_cat_id": 41885,
        "meta_element_set_no": 999,
        "meta_rev_at_epoch": 49838,
        "meta_bstar": 0.001424,
        "meta_mean_motion_dot": 0.00082424,
        "meta_mean_motion_ddot": 0,
        "tle_line1": "1 41885U 16078B   25336.71369728  .00082424  00000+0  14240-2 0  9992",
        "tle_line2": "2 41885  34.9339  87.6561 0008454 117.0889 243.0696 15.49717157498386"
      },
      "geometry": {
        "type": "Point",
        "coordinates": [
          -101.75269435076343,
          3.1759675773654026
        ]
      }
    },
    {
      "type": "Feature",
      "properties": {
        "norad_id": 41886,
        "name": "CYGFM02",
        "group": "weather",
        "lat": 20.778680250375103,
        "lon": -131.66485635359336,
        "alt_km": 402.802272971875,
        "timestamp": "2025-12-03T10:52:57.090177+00:00",
        "meta_object_name": "CYGFM02",
        "meta_object_id": "2016-078C",
        "meta_epoch": "2025-12-02T17:17:02.334624",
        "meta_mean_motion": 15.51057984,
        "meta_eccentricity": 0.0010167,
        "meta_inclination": 34.943,
        "meta_ra_of_asc_node": 86.0684,
        "meta_arg_of_pericenter": 116.2207,
        "meta_mean_anomaly": 243.9561,
        "meta_ephemeris_type": 0,
        "meta_classification_type": "U",
        "meta_norad_cat_id": 41886,
        "meta_element_set_no": 999,
        "meta_rev_at_epoch": 49851,
        "meta_bstar": 0.00048914,
        "meta_mean_motion_dot": 0.00029486,
        "meta_mean_motion_ddot": 0,
        "tle_line1": "1 41886U 16078C   25336.72016591  .00029486  00000+0  48914-3 0  9996",
        "tle_line2": "2 41886  34.9430  86.0684 0010167 116.2207 243.9561 15.51057984498510"
      },
      "geometry": {
        "type": "Point",
        "coordinates": [
          -131.66485635359336,
          20.778680250375103
        ]
      }
    },
    {
      "type": "Feature",
      "properties": {
        "norad_id": 41887,
        "name": "CYGFM01",
        "group": "weather",
        "lat": 26.039679117168223,
        "lon": 154.59356164511084,
        "alt_km": 413.45992337797816,
        "timestamp": "2025-12-03T10:52:57.090188+00:00",
        "meta_object_name": "CYGFM01",
        "meta_object_id": "2016-078D",
        "meta_epoch": "2025-12-02T19:11:10.478112",
        "meta_mean_motion": 15.47633981,
        "meta_eccentricity": 0.0009076,
        "meta_inclination": 34.9409,
        "meta_ra_of_asc_node": 114.4547,
        "meta_arg_of_pericenter": 78.5446,
        "meta_mean_anomaly": 281.6294,
        "meta_ephemeris_type": 0,
        "meta_classification_type": "U",
        "meta_norad_cat_id": 41887,
        "meta_element_set_no": 999,
        "meta_rev_at_epoch": 49816,
        "meta_bstar": 0.00047956,
        "meta_mean_motion_dot": 0.00025583,
        "meta_mean_motion_ddot": 0,
        "tle_line1": "1 41887U 16078D   25336.79942683  .00025583  00000+0  47956-3 0  9993",
        "tle_line2": "2 41887  34.9409 114.4547 0009076  78.5446 281.6294 15.47633981498168"
      },
      "geometry": {
        "type": "Point",
        "coordinates": [
          154.59356164511084,
          26.039679117168223
        ]
      }
    },
    {
      "type": "Feature",
      "properties": {
        "norad_id": 41888,
        "name": "CYGFM08",
        "group": "weather",
        "lat": 29.206464875412337,
        "lon": 146.46626385574683,
        "alt_km": 410.198442935357,
        "timestamp": "2025-12-03T10:52:57.090199+00:00",
        "meta_object_name": "CYGFM08",
        "meta_object_id": "2016-078E",
        "meta_epoch": "2025-12-02T17:36:54.315072",
        "meta_mean_motion": 15.48804218,
        "meta_eccentricity": 0.0010648,
        "meta_inclination": 34.9446,
        "meta_ra_of_asc_node": 97.9884,
        "meta_arg_of_pericenter": 104.4395,
        "meta_mean_anomaly": 255.7509,
        "meta_ephemeris_type": 0,
        "meta_classification_type": "U",
        "meta_norad_cat_id": 41888,
        "meta_element_set_no": 999,
        "meta_rev_at_epoch": 49838,
        "meta_bstar": 0.00048806,
        "meta_mean_motion_dot": 0.00027152,
        "meta_mean_motion_ddot": 0,
        "tle_line1": "1 41888U 16078E   25336.73396198  .00027152  00000+0  48806-3 0  9991",
        "tle_line2": "2 41888  34.9446  97.9884 0010648 104.4395 255.7509 15.48804218498387"
      },
      "geometry": {
        "type": "Point",
        "coordinates": [
          146.46626385574683,
          29.206464875412337
        ]
      }
    }
  ]
}